OBJECT_NAME,OBJECT_ID,EPOCH,MEAN_MOTION,ECCENTRICITY,INCLINATION,RA_OF_ASC_NODE,ARG_OF_PERICENTER,MEAN_ANOMALY,EPHEMERIS_TYPE,CLASSIFICATION_TYPE,NORAD_CAT_ID,ELEMENT_SET_NO,REV_AT_EPOCH,BSTAR,MEAN_MOTION_DOT,MEAN_MOTION_DDOT
COSMOS 2534 (758),2019-030A,2026-07-16T15:35:19.703040,2.13102191,.0013502,64.3705,191.6243,275.0108,146.6615,0,U,44299,999,5555,0,.52E-6,0
BEIDOU-3 IGSO-2 (C39),2019-035A,2026-07-20T06:50:53.025216,1.00256016,.00392668,55.2517,158.5718,216.3906,144.0267,0,U,44337,999,2600,0,-.108E-5,0
GPS BIII-2  (PRN 18),2019-056A,2026-07-20T13:22:57.472896,2.00570361,.0063651,55.6190,329.8162,198.2384,164.9802,0,U,44506,999,5074,0,-.109E-5,0
BEIDOU-3 M24 (C46),2019-061A,2026-07-19T23:55:07.811616,1.86229210,.00087009,54.3974,181.6213,359.9963,359.9812,0,U,44542,999,4640,0,.73E-6,0
BEIDOU-3 M23 (C45),2019-061B,2026-07-20T05:52:15.922272,1.86227453,.00060136,54.3961,181.5811,341.7340,95.9084,0,U,44543,999,4641,0,.75E-6,0
EUTELSAT 5 WEST B (EGNOS/PRN 121),2019-067A,2026-07-20T19:56:51.156960,1.00271669,.0003199,0.0752,323.5301,154.9122,114.3565,0,U,44624,999,2477,0,-.43E-6,0
BEIDOU-3 M22 (C44),2019-078A,2026-07-20T08:58:29.301600,1.86227188,.0005612,53.9034,298.6592,50.4181,309.6692,0,U,44793,999,4526,0,-.97E-6,0
BEIDOU-3 M21 (C43),2019-078B,2026-07-19T23:26:38.266656,1.86227606,.00035251,53.8770,298.6333,49.7600,310.3090,0,U,44794,999,4526,0,-.96E-6,0
COSMOS 2544 (759),2019-088A,2026-07-18T22:32:17.742336,2.13102904,.00120499,65.5828,72.6716,253.1294,106.8089,0,U,44850,999,5139,0,-.38E-6,0
BEIDOU-3 M19 (C41),2019-090A,2026-07-19T07:19:46.002720,1.86231477,.00166077,56.5872,61.7289,297.5472,169.9419,0,U,44864,999,4483,0,-.73E-6,0
BEIDOU-3 M20 (C42),2019-090B,2026-07-20T08:06:41.783040,1.86231473,.0013751,56.5902,61.7294,313.4468,215.9166,0,U,44865,999,4483,0,-.78E-6,0
COSMOS 2545 (760),2020-018A,2026-07-20T01:44:27.975264,2.13102411,.0009901,64.3333,311.2627,230.0825,129.8537,0,U,45358,999,4936,0,-.83E-6,0
GPS BIII-3  (PRN 23),2020-041A,2026-07-20T21:32:19.513248,2.00557989,.0065502,56.6926,27.6360,204.6753,340.8282,0,U,45854,999,4471,0,-.87E-6,0
GALAXY 30 (WAAS/PRN 135),2020-056C,2026-07-20T15:57:20.970720,1.00270661,.0002159,0.0184,58.7653,56.9350,297.0671,0,U,46114,999,2162,0,.36E-6,0
COSMOS 2547 (705K),2020-075A,2026-07-20T06:17:43.424160,2.13099966,.00094658,64.6016,191.3717,239.9348,119.9732,0,U,46805,999,4461,0,.83E-6,0
GPS BIII-4  (PRN 14),2020-078A,2026-07-20T09:48:58.596192,2.00565064,.00746647,53.9767,209.4308,207.9413,322.4110,0,U,46826,999,4217,0,.66E-6,0
QZS-1R (QZSS/PRN 196),2021-096A,2026-07-19T13:27:51.734016,1.00244085,.07555125,37.5263,79.1015,272.3091,279.1178,0,U,49336,999,1733,0,-.322E-5,0
GSAT0223 (GALILEO 27),2021-116A,2026-07-20T08:57:14.296032,1.70476368,.00024821,57.1482,340.7789,195.0305,131.7493,0,U,49809,999,2874,0,-.107E-5,0
GSAT0224 (GALILEO 28),2021-116B,2026-07-19T22:53:39.367968,1.70476408,.00019036,57.1487,340.7887,182.1498,0.0180,0,U,49810,999,2876,0,-.107E-5,0
COSMOS 2557 (706K),2022-075A,2026-07-19T11:42:34.358688,2.13102100,.00109026,64.2776,313.3470,270.7384,89.1574,0,U,52984,999,3140,0,-.8E-6,0
COSMOS 2559 (707K),2022-130A,2026-07-20T05:54:24.863040,2.13101775,.0013166,64.2495,313.4030,181.6357,178.3807,0,U,54031,999,2939,0,-.85E-6,0
COSMOS 2564 (761),2022-161A,2026-07-20T13:24:12.354912,2.13102066,.001218,64.7442,191.6039,224.7741,135.1307,0,U,54377,999,2834,0,.86E-6,0
GPS BIII-6  (PRN 28),2023-009A,2026-07-20T14:32:11.705856,2.00569363,.0005287,55.1257,147.2053,339.0004,198.4380,0,U,55268,999,2591,0,.29E-6,0
COSMOS 2569 (703K),2023-114A,2026-07-20T02:26:09.944736,2.13103821,.00094908,65.3210,71.5108,295.5049,64.4648,0,U,57517,999,2296,0,-.49E-6,0
BEIDOU-3 M28 (C50),2023-207A,2026-07-20T01:17:23.722656,1.86229765,.00022586,55.7822,61.1944,8.4424,351.6234,0,U,58654,999,1745,0,-.79E-6,0
BEIDOU-3 M26 (C48),2023-207B,2026-07-19T20:25:47.358048,1.86229761,.0001768,55.7843,61.1877,324.3681,35.6824,0,U,58655,999,1743,0,-.78E-6,0
